0 FENGYUN 1C DEB
1 37909U 99025ENJ 13280.76055537  .00001240  00000-0  12172-2 0   774
2 37909 098.8578 116.0246 0213268 172.1608 188.3579 13.71097892205580
0 FENGYUN 1C DEB
1 37909U 99025ENJ 13283.31466326  .00001249  00000-0  12249-2 0   785
2 37909 098.8582 118.3807 0213159 165.4345 195.3137 13.71104600205938
0 FENGYUN 1C DEB
1 37909U 99025ENJ 13286.30661189  .00001285  00000-0  12593-2 0   794
2 37909 098.8581 121.1437 0212968 157.5181 203.5572 13.71113240206346
0 FENGYUN 1C DEB
1 37909U 99025ENJ 13288.34987705  .00001311  00000-0  12834-2 0   805
2 37909 098.8572 123.0283 0213226 152.1707 209.1076 13.71119421206628
0 FENGYUN 1C DEB
1 37909U 99025ENJ 13291.34178201  .00001360  00000-0  13290-2 0   814
2 37909 098.8572 125.7919 0213670 144.1873 217.3845 13.71129067207039
0 FENGYUN 1C DEB
1 37909U 99025ENJ 13293.38502003  .00001388  00000-0  13505-2 0   821
2 37909 098.8608 127.6822 0215843 139.1111 222.6822 13.71135719207312
